{
  "type": "FeatureCollection",
  "features": [
    {
      "type": "Feature",
      "geometry": {
        "type": "Point",
        "coordinates": [
          -117.9988,
          33.6595
        ]
      },
      "properties": {
        "title": "geoffreycarlyenutt@gmail.com",
        "category": "excluded_gmail",
        "status": "Active Surveillance",
        "timestamp": "2026-09-14T10:14:21Z"
      }
    },
    {
      "type": "Feature",
      "geometry": {
        "type": "Point",
        "coordinates": [
          -118.00280000000001,
          33.664500000000004
        ]
      },
      "properties": {
        "title": "mistresskaylabdsm@gmail.com",
        "category": "excluded_gmail",
        "status": "Active Surveillance",
        "timestamp": "2026-09-14T10:14:21Z"
      }
    },
    {
      "type": "Feature",
      "geometry": {
        "type": "Point",
        "coordinates": [
          -118.0068,
          33.6695
        ]
      },
      "properties": {
        "title": "my4angels1984@gmail.com",
        "category": "excluded_gmail",
        "status": "Active Surveillance",
        "timestamp": "2026-09-14T10:14:21Z"
      }
    },
    {
      "type": "Feature",
      "geometry": {
        "type": "Point",
        "coordinates": [
          -118.0108,
          33.6745
        ]
      },
      "properties": {
        "title": "rolandgallardo714@gmail.com",
        "category": "excluded_gmail",
        "status": "Active Surveillance",
        "timestamp": "2026-09-14T10:14:21Z"
      }
    },
    {
      "type": "Feature",
      "geometry": {
        "type": "Point",
        "coordinates": [
          -118.01480000000001,
          33.679500000000004
        ]
      },
      "properties": {
        "title": "sunsetmaverick949@gmail.com",
        "category": "new_gmail_accounts",
        "status": "Active Surveillance",
        "timestamp": "2026-09-14T10:14:21Z"
      }
    },
    {
      "type": "Feature",
      "geometry": {
        "type": "Point",
        "coordinates": [
          -118.0188,
          33.6845
        ]
      },
      "properties": {
        "title": "makeitsoxo@gmail.com",
        "category": "new_gmail_accounts",
        "status": "Active Surveillance",
        "timestamp": "2026-09-14T10:14:21Z"
      }
    },
    {
      "type": "Feature",
      "geometry": {
        "type": "Point",
        "coordinates": [
          -118.0228,
          33.6895
        ]
      },
      "properties": {
        "title": "johnyrocketoc@gmail.com",
        "category": "new_gmail_accounts",
        "status": "Active Surveillance",
        "timestamp": "2026-09-14T10:14:21Z"
      }
    },
    {
      "type": "Feature",
      "geometry": {
        "type": "Point",
        "coordinates": [
          -118.02680000000001,
          33.6945
        ]
      },
      "properties": {
        "title": "atlasoccustomcabinets@gmail.com",
        "category": "new_gmail_accounts",
        "status": "Active Surveillance",
        "timestamp": "2026-09-14T10:14:21Z"
      }
    },
    {
      "type": "Feature",
      "geometry": {
        "type": "Point",
        "coordinates": [
          -118.0308,
          33.6995
        ]
      },
      "properties": {
        "title": "disoledesign@gmail.com",
        "category": "new_gmail_accounts",
        "status": "Active Surveillance",
        "timestamp": "2026-09-14T10:14:21Z"
      }
    },
    {
      "type": "Feature",
      "geometry": {
        "type": "Point",
        "coordinates": [
          -118.0348,
          33.7045
        ]
      },
      "properties": {
        "title": "amd949609@gmail.com",
        "category": "primary_gmail_accounts",
        "status": "Active Surveillance",
        "timestamp": "2026-09-14T10:14:21Z"
      }
    },
    {
      "type": "Feature",
      "geometry": {
        "type": "Point",
        "coordinates": [
          -118.03880000000001,
          33.7095
        ]
      },
      "properties": {
        "title": "osintneoai@gmail.com",
        "category": "primary_gmail_accounts",
        "status": "Active Surveillance",
        "timestamp": "2026-09-14T10:14:21Z"
      }
    },
    {
      "type": "Feature",
      "geometry": {
        "type": "Point",
        "coordinates": [
          -118.0428,
          33.7145
        ]
      },
      "properties": {
        "title": "txtdjdrop@gmail.com",
        "category": "primary_gmail_accounts",
        "status": "Active Surveillance",
        "timestamp": "2026-09-14T10:14:21Z"
      }
    },
    {
      "type": "Feature",
      "geometry": {
        "type": "Point",
        "coordinates": [
          -118.0468,
          33.719500000000004
        ]
      },
      "properties": {
        "title": "pmportal949@gmail.com",
        "category": "primary_gmail_accounts",
        "status": "Active Surveillance",
        "timestamp": "2026-09-14T10:14:21Z"
      }
    },
    {
      "type": "Feature",
      "geometry": {
        "type": "Point",
        "coordinates": [
          -118.05080000000001,
          33.7245
        ]
      },
      "properties": {
        "title": "anthonymichaeldimarcello@gmail.com",
        "category": "primary_gmail_accounts",
        "status": "Active Surveillance",
        "timestamp": "2026-09-14T10:14:21Z"
      }
    },
    {
      "type": "Feature",
      "geometry": {
        "type": "Point",
        "coordinates": [
          -118.0548,
          33.7295
        ]
      },
      "properties": {
        "title": "drillingoilandgasinfo@gmail.com",
        "category": "primary_gmail_accounts",
        "status": "Active Surveillance",
        "timestamp": "2026-09-14T10:14:21Z"
      }
    }
  ]
}